{
    "links": {
        "self": "http://www.neowsapp.com/rest/v1/neo/3798972?api_key=iIulBulltgU6a56xZRHN4H3l9WmuAYTsLGpBGhQ2"
    },
    "id": "3798972",
    "neo_reference_id": "3798972",
    "name": "(2018 BL6)",
    "designation": "2018 BL6",
    "nasa_jpl_url": "http://ssd.jpl.nasa.gov/sbdb.cgi?sstr=3798972",
    "absolute_magnitude_h": 24.4,
    "estimated_diameter": {
        "kilometers": {
            "estimated_diameter_min": 0.0350392641,
            "estimated_diameter_max": 0.0783501764
        },
        "meters": {
            "estimated_diameter_min": 35.0392641108,
            "estimated_diameter_max": 78.3501764334
        },
        "miles": {
            "estimated_diameter_min": 0.0217723826,
            "estimated_diameter_max": 0.0486845275
        },
        "feet": {
            "estimated_diameter_min": 114.9582192654,
            "estimated_diameter_max": 257.0543928497
        }
    },
    "is_potentially_hazardous_asteroid": false,
    "close_approach_data": [
        {
            "close_approach_date": "2008-11-05",
            "close_approach_date_full": "2008-Nov-05 07:32",
            "epoch_date_close_approach": 1225870320000,
            "relative_velocity": {
                "kilometers_per_second": "3.5067483871",
                "kilometers_per_hour": "12624.2941937165",
                "miles_per_hour": "7844.2454672012"
            },
            "miss_distance": {
                "astronomical": "1.548256453",
                "lunar": "602.271760217",
                "kilometers": "231615867.58255511",
                "miles": "143919426.483316118"
            },
            "orbiting_body": "Juptr"
        },
        {
            "close_approach_date": "2018-01-22",
            "close_approach_date_full": "2018-Jan-22 00:46",
            "epoch_date_close_approach": 1516581960000,
            "relative_velocity": {
                "kilometers_per_second": "6.2804086857",
                "kilometers_per_hour": "22609.4712685217",
                "miles_per_hour": "14048.6461890434"
            },
            "miss_distance": {
                "astronomical": "0.0773723092",
                "lunar": "30.0978282788",
                "kilometers": "11574732.653301404",
                "miles": "7192205.3637672152"
            },
            "orbiting_body": "Earth"
        },
        {
            "close_approach_date": "2029-03-17",
            "close_approach_date_full": "2029-Mar-17 09:17",
            "epoch_date_close_approach": 1868433420000,
            "relative_velocity": {
                "kilometers_per_second": "19.7500576348",
                "kilometers_per_hour": "71100.207485248",
                "miles_per_hour": "44178.9039232642"
            },
            "miss_distance": {
                "astronomical": "0.4533874755",
                "lunar": "176.3677279695",
                "kilometers": "67825800.619477185",
                "miles": "42144998.215407753"
            },
            "orbiting_body": "Earth"
        },
        {
            "close_approach_date": "2116-03-07",
            "close_approach_date_full": "2116-Mar-07 12:04",
            "epoch_date_close_approach": 4613025840000,
            "relative_velocity": {
                "kilometers_per_second": "3.3043148177",
                "kilometers_per_hour": "11895.5333435525",
                "miles_per_hour": "7391.421815609"
            },
            "miss_distance": {
                "astronomical": "1.4179040059",
                "lunar": "551.5646582951",
                "kilometers": "212115419.147107433",
                "miles": "131802409.6990632554"
            },
            "orbiting_body": "Juptr"
        }
    ],
    "orbital_data": {
        "orbit_id": "6",
        "orbit_determination_date": "2018-03-12 07:20:51",
        "first_observation_date": "2018-01-25",
        "last_observation_date": "2018-03-12",
        "data_arc_in_days": 46,
        "observations_used": 48,
        "orbit_uncertainty": "6",
        "minimum_orbit_intersection": ".0670421",
        "jupiter_tisserand_invariant": "3.295",
        "epoch_osculation": "2459000.5",
        "eccentricity": ".5642298129824705",
        "semi_major_axis": "2.389948916504937",
        "inclination": "2.734790589162511",
        "ascending_node_longitude": "354.2875819695054",
        "orbital_period": "1349.526305228719",
        "perihelion_distance": "1.041468486307698",
        "perihelion_argument": "130.4680099638057",
        "aphelion_distance": "3.738429346702175",
        "perihelion_time": "2459493.174012989926",
        "mean_anomaly": "228.5741478404796",
        "mean_motion": ".2667602688478065",
        "equinox": "J2000",
        "orbit_class": {
            "orbit_class_type": "AMO",
            "orbit_class_description": "Near-Earth asteroid orbits similar to that of 1221 Amor",
            "orbit_class_range": "1.017 AU < q (perihelion) < 1.3 AU"
        }
    },
    "is_sentry_object": false
}